NORAD_CAT_ID,OBJECT_NAME,OBJECT_TYPE,EPOCH,MEAN_MOTION,ECCENTRICITY,INCLINATION,RA_OF_ASC_NODE,ARG_OF_PERICENTER,MEAN_ANOMALY,BSTAR,MEAN_MOTION_DOT,MEAN_MOTION_DDOT,TLE_LINE0,TLE_LINE1,TLE_LINE2,SEMIMAJOR_AXIS,PERIOD,APOGEE,PERIGEE,DECAYED
53393.0,STARLINK-4530,PAYLOAD,2024-07-12 14:32:08,15.08834399,0.0001286,53.2174,320.4516,90.0092,270.1048,1.2511e-06,-2.68e-06,0.0,0 STARLINK-4530,1 53393U 22097F   24194.60565711 -.00000268  00000-0  12511-5 0  9996,2 53393  53.2174 320.4516 0001286  90.0092 270.1048 15.08834399107320,6917.898,95.438,540.652,538.873,0.0
53393.0,STARLINK-4530,PAYLOAD,2024-07-12 16:07:31,15.08842867,0.0001281,53.2162,320.1542,86.8794,273.2345,0.00019368,2.796e-05,0.0,0 STARLINK-4530,1 53393U 22097F   24194.67189517  .00002796  00000-0  19368-3 0  9991,2 53393  53.2162 320.1542 0001281  86.8794 273.2345 15.08842867107334,6917.872,95.437,540.623,538.85,0.0
53393.0,STARLINK-4530,PAYLOAD,2024-07-13 01:39:50,15.08853588,0.0001233,53.2168,318.3689,82.7234,277.3898,0.00057027,8.803e-05,0.0,0 STARLINK-4530,1 53393U 22097F   24195.06933237  .00008803  00000-0  57027-3 0  9990,2 53393  53.2168 318.3689 0001233  82.7234 277.3898 15.08853588106746,6917.839,95.437,540.557,538.851,0.0
53393.0,STARLINK-4530,PAYLOAD,2024-07-13 12:47:32,15.08836883,0.0001468,53.2165,316.2876,87.596,272.52,0.00021112,3.073e-05,0.0,0 STARLINK-4530,1 53393U 22097F   24195.53301889  .00003073  00000-0  21112-3 0  9994,2 53393  53.2165 316.2876 0001468  87.5960 272.5200 15.08836883106818,6917.89,95.438,540.77,538.739,0.0
53393.0,STARLINK-4530,PAYLOAD,2024-07-13 14:22:55,15.08837709,0.0001229,53.2162,315.9899,93.3535,266.7597,0.00026596,3.947e-05,0.0,0 STARLINK-4530,1 53393U 22097F   24195.59925836  .00003947  00000-0  26596-3 0  9995,2 53393  53.2162 315.9899 0001229  93.3535 266.7597 15.08837709107479,6917.887,95.438,540.603,538.902,0.0
53393.0,STARLINK-4530,PAYLOAD,2024-07-14 01:30:37,15.08857726,0.000124,53.2163,313.9084,91.6851,268.4283,0.0010064,0.00015773,0.0,0 STARLINK-4530,1 53393U 22097F   24196.06293620  .00015773  00000-0  10064-2 0  9999,2 53393  53.2163 313.9084 0001240  91.6851 268.4283 15.08857726106896,6917.826,95.436,540.549,538.833,0.0
53393.0,STARLINK-4530,PAYLOAD,2024-07-14 14:13:42,15.08850766,0.0001313,53.2166,311.5307,78.7966,281.3174,0.0016858,0.00026651,0.0,0 STARLINK-4530,1 53393U 22097F   24196.59285832  .00026651  00000-0  16858-2 0  9997,2 53393  53.2166 311.5307 0001313  78.7966 281.3174 15.08850766106974,6917.847,95.437,540.621,538.804,0.0
53393.0,STARLINK-4530,PAYLOAD,2024-07-15 12:29:06,15.08839641,0.0001252,53.2161,307.3669,62.7556,297.3564,0.0015812,0.00024966,0.0,0 STARLINK-4530,1 53393U 22097F   24197.52021830  .00024966  00000-0  15812-2 0  9993,2 53393  53.2161 307.3669 0001252  62.7556 297.3564 15.08839641107119,6917.881,95.438,540.613,538.88,0.0
53393.0,STARLINK-4530,PAYLOAD,2024-07-15 14:04:29,15.08840137,0.0001267,53.2164,307.0693,85.5281,274.5855,0.0016665,0.00026334,0.0,0 STARLINK-4530,1 53393U 22097F   24197.58645800  .00026334  00000-0  16665-2 0  9996,2 53393  53.2164 307.0693 0001267  85.5281 274.5855 15.08840137107774,6917.88,95.438,540.621,538.868,0.0
53393.0,STARLINK-4530,PAYLOAD,2024-07-16 12:19:53,15.08843803,0.0001161,53.2172,302.9066,85.4984,274.614,0.0015927,0.00025153,0.0,0 STARLINK-4530,1 53393U 22097F   24198.51381920  .00025153  00000-0  15927-2 0  9998,2 53393  53.2172 302.9066 0001161  85.4984 274.6140 15.08843803107268,6917.869,95.437,540.537,538.931,0.0
53393.0,STARLINK-4530,PAYLOAD,2024-07-16 13:55:17,15.08845629,0.0001191,53.2171,302.6091,92.6615,267.4513,0.0018847,0.00029839,0.0,0 STARLINK-4530,1 53393U 22097F   24198.58005935  .00029839  00000-0  18847-2 0  9993,2 53393  53.2171 302.6091 0001191  92.6615 267.4513 15.08845629107921,6917.863,95.437,540.552,538.904,0.0
53393.0,STARLINK-4530,PAYLOAD,2024-07-17 05:49:08,15.08858037,0.000135,53.2172,299.6352,87.7943,272.3204,0.0017059,0.00026979,0.0,0 STARLINK-4530,1 53393U 22097F   24199.24245993  .00026979  00000-0  17059-2 0  9993,2 53393  53.2172 299.6352 0001350  87.7943 272.3204 15.08858037107371,6917.825,95.436,540.624,538.756,0.0
53393.0,STARLINK-4530,PAYLOAD,2024-07-17 13:46:04,15.08841456,0.0001193,53.217,298.145,79.8996,280.2131,0.00020648,3e-05,0.0,0 STARLINK-4530,1 53393U 22097F   24199.57366189  .00003000  00000-0  20648-3 0  9999,2 53393  53.2170 298.1450 0001193  79.8996 280.2131 15.08841456107427,6917.876,95.437,540.566,538.916,0.0
53393.0,STARLINK-4530,PAYLOAD,2024-07-17 23:18:22,15.08856583,0.0001278,53.2165,296.3591,50.5724,309.5381,0.00052921,8.148e-05,0.0,0 STARLINK-4530,1 53393U 22097F   24199.97109706  .00008148  00000-0  52921-3 0  9990,2 53393  53.2165 296.3591 0001278  50.5724 309.5381 15.08856583107481,6917.83,95.437,540.579,538.811,0.0
53393.0,STARLINK-4530,PAYLOAD,2024-07-18 13:36:51,15.08834531,0.000147,53.2172,293.693,105.2702,254.8452,6.0021e-05,6.67e-06,0.0,0 STARLINK-4530,1 53393U 22097F   24200.56726657  .00000667  00000-0  60021-4 0  9997,2 53393  53.2172 293.6930 0001470 105.2702 254.8452 15.08834531107574,6917.897,95.438,540.779,538.745,0.0
53393.0,STARLINK-4530,PAYLOAD,2024-07-19 13:27:38,15.08842545,0.0001245,53.2164,289.2283,83.6218,276.4916,0.00032568,4.899e-05,0.0,0 STARLINK-4530,1 53393U 22097F   24201.56086796  .00004899  00000-0  32568-3 0  9996,2 53393  53.2164 289.2283 0001245  83.6218 276.4916 15.08842545108376,6917.873,95.437,540.599,538.876,0.0
53393.0,STARLINK-4530,PAYLOAD,2024-07-20 05:21:30,15.08831023,0.0001318,53.2158,286.2539,104.4347,255.6791,-0.00018422,-3.218e-05,0.0,0 STARLINK-4530,1 53393U 22097F   24202.22326855 -.00003218  00000-0 -18422-3 0  9992,2 53393  53.2158 286.2539 0001318 104.4347 255.6791 15.08831023107824,6917.908,95.438,540.685,538.861,0.0
53393.0,STARLINK-4530,PAYLOAD,2024-07-20 13:18:25,15.08841487,0.00012,53.2156,284.7692,93.4668,266.6461,0.00023605,3.471e-05,0.0,0 STARLINK-4530,1 53393U 22097F   24202.55446702  .00003471  00000-0  23605-3 0  9990,2 53393  53.2156 284.7692 0001200  93.4668 266.6461 15.08841487108527,6917.876,95.437,540.571,538.911,0.0
53393.0,STARLINK-4530,PAYLOAD,2024-07-21 11:33:49,15.08852207,0.0001186,53.215,280.6049,98.151,261.9617,0.00069821,0.00010845,0.0,0 STARLINK-4530,1 53393U 22097F   24203.48182617  .00010845  00000-0  69821-3 0  9998,2 53393  53.2150 280.6049 0001186  98.1510 261.9617 15.08852207108661,6917.843,95.437,540.529,538.888,0.0
53393.0,STARLINK-4530,PAYLOAD,2024-07-22 09:49:13,15.08843713,0.0001174,53.2153,276.4415,96.5378,263.5747,0.00019236,2.775e-05,0.0,0 STARLINK-4530,1 53393U 22097F   24204.40918668  .00002775  00000-0  19236-3 0  9992,2 53393  53.2153 276.4415 0001174  96.5378 263.5747 15.08843713108153,6917.869,95.437,540.546,538.922,0.0
53393.0,STARLINK-4530,PAYLOAD,2024-07-22 14:35:23,15.08845724,0.0001168,53.2155,275.5494,96.618,263.4945,0.00018224,2.614e-05,0.0,0 STARLINK-4530,1 53393U 22097F   24204.60790623  .00002614  00000-0  18224-3 0  9991,2 53393  53.2155 275.5494 0001168  96.6180 263.4945 15.08845724108835,6917.863,95.437,540.536,538.92,0.0
53393.0,STARLINK-4530,PAYLOAD,2024-07-23 11:15:23,15.08844708,0.0001329,53.2158,271.6835,86.2814,273.8331,0.00010943,1.454e-05,0.0,0 STARLINK-4530,1 53393U 22097F   24205.46902640  .00001454  00000-0  10943-3 0  9991,2 53393  53.2158 271.6835 0001329  86.2814 273.8331 15.08844708108310,6917.866,95.437,540.65,538.812,0.0
53393.0,STARLINK-4530,PAYLOAD,2024-07-24 04:44:38,15.08837672,0.0001236,53.2152,268.4129,84.663,275.4503,5.2027e-05,5.4e-06,0.0,0 STARLINK-4530,1 53393U 22097F   24206.19767003  .00000540  00000-0  52027-4 0  9999,2 53393  53.2152 268.4129 0001236  84.6630 275.4503 15.08837672108422,6917.888,95.438,540.608,538.897,0.0
53393.0,STARLINK-4530,PAYLOAD,2024-07-24 09:30:48,15.08835153,0.0001393,53.2165,267.5184,108.0925,252.0219,7.0254e-05,8.3e-06,0.0,0 STARLINK-4530,1 53393U 22097F   24206.39639307  .00000830  00000-0  70254-4 0  9990,2 53393  53.2165 267.5184 0001393 108.0925 252.0219 15.08835153109102,6917.895,95.438,540.724,538.797,0.0
53393.0,STARLINK-4530,PAYLOAD,2024-07-25 04:35:25,15.0884111,0.0001323,53.2159,263.9486,101.0379,259.0762,8.8515e-05,1.121e-05,0.0,0 STARLINK-4530,1 53393U 22097F   24207.19127113  .00001121  00000-0  88515-4 0  9999,2 53393  53.2159 263.9486 0001323 101.0379 259.0762 15.08841110109222,6917.877,95.437,540.657,538.827,0.0
53393.0,STARLINK-4530,PAYLOAD,2024-07-25 09:21:35,15.08844347,0.0001278,53.2153,263.0567,94.3339,265.7799,0.0001191,1.608e-05,0.0,0 STARLINK-4530,1 53393U 22097F   24207.38998945  .00001608  00000-0  11910-3 0  9993,2 53393  53.2153 263.0567 0001278  94.3339 265.7799 15.08844347108606,6917.867,95.437,540.616,538.848,0.0
53393.0,STARLINK-4530,PAYLOAD,2024-07-25 14:07:44,15.08845881,0.0001376,53.2154,262.1644,103.5535,256.5611,0.00012655,1.727e-05,0.0,0 STARLINK-4530,1 53393U 22097F   24207.58870814  .00001727  00000-0  12655-3 0  9998,2 53393  53.2154 262.1644 0001376 103.5535 256.5611 15.08845881109283,6917.862,95.437,540.679,538.776,0.0
53393.0,STARLINK-4530,PAYLOAD,2024-07-26 09:12:22,15.08836278,0.0001498,53.2161,258.6044,100.1708,259.9453,0.00016431,2.328e-05,0.0,0 STARLINK-4530,1 53393U 22097F   24208.38359351  .00002328  00000-0  16431-3 0  9999,2 53393  53.2161 258.6044 0001498 100.1708 259.9453 15.08836278108757,6917.892,95.438,540.793,538.72,0.0
53393.0,STARLINK-4530,PAYLOAD,2024-07-26 13:58:31,15.08838262,0.0001548,53.2152,257.7024,95.1587,264.9582,0.00014587,2.034e-05,0.0,0 STARLINK-4530,1 53393U 22097F   24208.58231263  .00002034  00000-0  14587-3 0  9996,2 53393  53.2152 257.7024 0001548  95.1587 264.9582 15.08838262109439,6917.886,95.438,540.822,538.68,0.0
53393.0,STARLINK-4530,PAYLOAD,2024-07-26 20:20:03,15.08851448,0.0001206,53.2145,256.5176,87.2034,272.9096,0.00023192,3.406e-05,0.0,0 STARLINK-4530,1 53393U 22097F   24208.84726416  .00003406  00000-0  23192-3 0  9990,2 53393  53.2145 256.5176 0001206  87.2034 272.9096 15.08851448108828,6917.845,95.437,540.545,538.876,0.0
